{
"type": "FeatureCollection",
"name": "addresses",
"crs": { "type": "name", "properties": { "name": "urn:ogc:def:crs:OGC:1.3:CRS84" } },
"features": [
{ "type": "Feature", "properties": { "osm_id": 4564230289, "amenity": "theatre", "addr:housenumber": "2540", "name": "Main Street Theater", "website": "http:\/\/www.mainstreettheater.com", "name:en": "Main Street Theater", "addr:postcode": "77005", "wikipedia": "en:Main Street Theater", "phone": "(713) 524-6706", "wikidata": "Q6736174", "addr:street": "Times Boulevard", "opening_hours": null, "addr:city": null, "description": null, "outdoor_seating": null, "addr:state": null, "smoking": null }, "geometry": { "type": "Point", "coordinates": [ -95.417963, 29.7168193 ] } },
{ "type": "Feature", "properties": { "osm_id": 6358676309, "amenity": "restaurant", "addr:housenumber": "2339", "name": "CoCo CrÃªpes, Waffles & Coffee", "website": "https:\/\/www.cococrepes.com\/location\/coco-crepes-rice-village", "name:en": null, "addr:postcode": null, "wikipedia": null, "phone": "(346) 980-5525", "wikidata": null, "addr:street": "university blvd", "opening_hours": "Mo-Th, Su 07:00-22:00; Fr, Sa 07:00-23:00", "addr:city": null, "description": null, "outdoor_seating": null, "addr:state": null, "smoking": null }, "geometry": { "type": "Point", "coordinates": [ -95.4144118, 29.7148259 ] } },
{ "type": "Feature", "properties": { "osm_id": 5189266346, "amenity": "bar", "addr:housenumber": "5611", "name": "Little Woodrow's Rice Village", "website": "https:\/\/littlewoodrows.com\/", "name:en": null, "addr:postcode": "TX 77005", "wikipedia": null, "phone": "+1 713 521 2337", "wikidata": null, "addr:street": "Morningside Drive", "opening_hours": "Mo-We 15:00-02:00, Th-Fr 14:00-02:00, Sa-Su 12:00-02:00", "addr:city": "Houston", "description": "Craft beer bar", "outdoor_seating": "yes", "addr:state": "TX", "smoking": "outside" }, "geometry": { "type": "Point", "coordinates": [ -95.414614, 29.7157297 ] } },
{ "type": "Feature", "properties": { "osm_id": 4497642289, "amenity": "bar", "addr:housenumber": "5607", "name": "The Ginger Man", "website": "http:\/\/thegingerman.com\/", "name:en": "The Ginger Man", "addr:postcode": "TX 77005", "wikipedia": null, "phone": "+1 713 526 2770", "wikidata": null, "addr:street": "Morningside Drive", "opening_hours": "Mo-Fr 14:00-02:00, Sa-Su 13:00-02:00", "addr:city": "Houston", "description": "Craft beer bar", "outdoor_seating": "yes", "addr:state": "TX", "smoking": "outside" }, "geometry": { "type": "Point", "coordinates": [ -95.4146663, 29.7158783 ] } },
{ "type": "Feature", "properties": { "osm_id": 5189272900, "amenity": "pub", "addr:housenumber": "5555", "name": "The Gorgeous Gael", "website": "https:\/\/www.thegorgeousgael.com\/", "name:en": null, "addr:postcode": "TX 77005", "wikipedia": null, "phone": "+1 832 667 8321", "wikidata": null, "addr:street": "Morningside Drive", "opening_hours": "Su-Mo 11:00-00:00, Tu-Sa 11:00-02:00", "addr:city": "Houston", "description": "Irish pub", "outdoor_seating": "yes", "addr:state": "TX", "smoking": "outside" }, "geometry": { "type": "Point", "coordinates": [ -95.4147343, 29.7162306 ] } }
]
}
